[{"OBJECT_NAME":"CUBESX-HSE 3 (RS42S)","OBJECT_ID":"2023-091N","EPOCH":"2026-03-09T22:57:25.321248","MEAN_MOTION":15.286147,"ECCENTRICITY":0.00127191,"INCLINATION":97.5203,"RA_OF_ASC_NODE":133.4295,"ARG_OF_PERICENTER":86.5376,"MEAN_ANOMALY":273.7318,"EPHEMERIS_TYPE":0,"CLASSIFICATION_TYPE":"U","NORAD_CAT_ID":57178,"ELEMENT_SET_NO":999,"REV_AT_EPOCH":14925,"BSTAR":0.00059055694,"MEAN_MOTION_DOT":0.00016417,"MEAN_MOTION_DDOT":0},{"OBJECT_NAME":"STARLINK-31796","OBJECT_ID":"2024-082R","EPOCH":"2026-03-09T04:10:50.376288","MEAN_MOTION":15.27574893,"ECCENTRICITY":0.0001059,"INCLINATION":43.0021,"RA_OF_ASC_NODE":142.6731,"ARG_OF_PERICENTER":228.3655,"MEAN_ANOMALY":131.7106,"EPHEMERIS_TYPE":0,"CLASSIFICATION_TYPE":"U","NORAD_CAT_ID":59646,"ELEMENT_SET_NO":999,"REV_AT_EPOCH":10489,"BSTAR":-1.66762e-5,"MEAN_MOTION_DOT":-7.21e-6,"MEAN_MOTION_DDOT":0}]
